LIZZIESAT-2 (LS-2)      
1 62383U 24247G   26068.49140277  .00009388  00000+0  34517-3 0  9997
2 62383  44.9909 117.0823 0004092 327.5136  32.5495 15.28222796 67716
STARLINK-32798          
1 63029U 25034A   26068.85037669  .00029759  00000+0  10128-2 0  9995
2 63029  53.1575 270.0070 0000822  70.6061 289.5028 15.30200436 58939
